RADARSAT-2              
1 32382U 07061A   26199.31478832  .00000068  00000+0  43132-4 0  9995
2 32382  98.5781 205.8034 0001320  84.8029 275.3304 14.29983910970407
